NORAD_CAT_ID,OBJECT_NAME,OBJECT_TYPE,EPOCH,MEAN_MOTION,ECCENTRICITY,INCLINATION,RA_OF_ASC_NODE,ARG_OF_PERICENTER,MEAN_ANOMALY,BSTAR,MEAN_MOTION_DOT,MEAN_MOTION_DDOT,TLE_LINE0,TLE_LINE1,TLE_LINE2,SEMIMAJOR_AXIS,PERIOD,APOGEE,PERIGEE,DECAYED
52490.0,STARLINK-3914,PAYLOAD,2024-07-13 10:52:57,15.0882313,0.0001625,53.2153,241.6449,99.1664,260.9512,0.00025761,3.812e-05,0.0,0 STARLINK-3914,1 52490U 22049AR  24195.45343838  .00003812  00000-0  25761-3 0  9994,2 52490  53.2153 241.6449 0001625  99.1664 260.9512 15.08823130121178,6917.932,95.439,540.921,538.673,0.0
52490.0,STARLINK-3914,PAYLOAD,2024-07-13 20:25:15,15.08840645,0.0001389,53.215,239.8603,92.6172,267.4979,1.8383e-05,5e-08,0.0,0 STARLINK-3914,1 52490U 22049AR  24195.85087512  .00000005  00000-0  18383-4 0  9996,2 52490  53.2150 239.8603 0001389  92.6172 267.4979 15.08840645121231,6917.878,95.438,540.704,538.783,0.0
52490.0,STARLINK-3914,PAYLOAD,2024-07-14 09:08:20,15.08839652,0.0001401,53.2148,237.4817,91.1398,268.9754,8.859e-05,1.122e-05,0.0,0 STARLINK-3914,1 52490U 22049AR  24196.38079393  .00001122  00000-0  88590-4 0  9991,2 52490  53.2148 237.4817 0001401  91.1398 268.9754 15.08839652121477,6917.881,95.438,540.716,538.777,0.0
52490.0,STARLINK-3914,PAYLOAD,2024-07-14 20:16:02,15.08842722,0.0001412,53.2149,235.4004,90.4333,269.6821,0.00010469,1.379e-05,0.0,0 STARLINK-3914,1 52490U 22049AR  24196.84447163  .00001379  00000-0  10469-3 0  9999,2 52490  53.2149 235.4004 0001412  90.4333 269.6821 15.08842722121382,6917.872,95.437,540.714,538.76,0.0
52490.0,STARLINK-3914,PAYLOAD,2024-07-15 12:09:53,15.0884652,0.0001423,53.2151,232.4261,92.9386,267.1769,0.00010666,1.41e-05,0.0,0 STARLINK-3914,1 52490U 22049AR  24197.50686937  .00001410  00000-0  10666-3 0  9992,2 52490  53.2151 232.4261 0001423  92.9386 267.1769 15.08846520121647,6917.86,95.437,540.71,538.741,0.0
52490.0,STARLINK-3914,PAYLOAD,2024-07-16 05:39:08,15.08837807,0.0001488,53.2153,229.1536,96.8601,263.256,1.5727e-05,-3.8e-07,0.0,0 STARLINK-3914,1 52490U 22049AR  24198.23551665 -.00000038  00000-0  15727-4 0  9992,2 52490  53.2153 229.1536 0001488  96.8601 263.2560 15.08837807121757,6917.887,95.438,540.781,538.723,0.0
52490.0,STARLINK-3914,PAYLOAD,2024-07-16 08:49:54,15.08839609,0.0001466,53.2155,228.5597,95.9668,264.1491,6.2483e-06,-1.89e-06,0.0,0 STARLINK-3914,1 52490U 22049AR  24198.36799576 -.00000189  00000-0  62483-5 0  9990,2 52490  53.2155 228.5597 0001466  95.9668 264.1491 15.08839609121618,6917.882,95.438,540.761,538.732,0.0
52490.0,STARLINK-3914,PAYLOAD,2024-07-17 08:40:41,15.08841452,0.0001396,53.2152,224.1011,94.6589,265.4563,3.5315e-05,2.74e-06,0.0,0 STARLINK-3914,1 52490U 22049AR  24199.36159370  .00000274  00000-0  35315-4 0  9990,2 52490  53.2152 224.1011 0001396  94.6589 265.4563 15.08841452121925,6917.876,95.437,540.707,538.775,0.0
52490.0,STARLINK-3914,PAYLOAD,2024-07-18 05:20:43,15.08830575,0.000136,53.2152,220.2353,96.51,263.6047,-2.2793e-06,-3.24e-06,0.0,0 STARLINK-3914,1 52490U 22049AR  24200.22272491 -.00000324  00000-0 -22793-5 0  9993,2 52490  53.2152 220.2353 0001360  96.5100 263.6047 15.08830575122058,6917.909,95.438,540.715,538.833,0.0
52490.0,STARLINK-3914,PAYLOAD,2024-07-18 08:31:29,15.08831532,0.0001397,53.2156,219.6417,97.9303,262.1848,4.0496e-06,-2.23e-06,0.0,0 STARLINK-3914,1 52490U 22049AR  24200.35520476 -.00000223  00000-0  40496-5 0  9993,2 52490  53.2156 219.6417 0001397  97.9303 262.1848 15.08831532121916,6917.906,95.438,540.738,538.805,0.0
52490.0,STARLINK-3914,PAYLOAD,2024-07-18 18:03:48,15.08836091,0.000134,53.2156,217.8565,95.7178,264.3967,3.6043e-05,2.86e-06,0.0,0 STARLINK-3914,1 52490U 22049AR  24200.75264252  .00000286  00000-0  36043-4 0  9994,2 52490  53.2156 217.8565 0001340  95.7178 264.3967 15.08836091121971,6917.892,95.438,540.684,538.83,0.0
52490.0,STARLINK-3914,PAYLOAD,2024-07-19 05:11:30,15.08839944,0.0001291,53.2156,215.774,90.0932,270.0208,5.1818e-05,5.37e-06,0.0,0 STARLINK-3914,1 52490U 22049AR  24201.21632101  .00000537  00000-0  51818-4 0  9994,2 52490  53.2156 215.7740 0001291  90.0932 270.0208 15.08839944122203,6917.881,95.438,540.639,538.852,0.0
52490.0,STARLINK-3914,PAYLOAD,2024-07-19 09:57:39,15.08841271,0.0001301,53.2157,214.882,90.1789,269.9352,6.0435e-05,6.74e-06,0.0,0 STARLINK-3914,1 52490U 22049AR  24201.41504002  .00000674  00000-0  60435-4 0  9991,2 52490  53.2157 214.8820 0001301  90.1789 269.9352 15.08841271122074,6917.877,95.437,540.642,538.841,0.0
52490.0,STARLINK-3914,PAYLOAD,2024-07-19 17:54:35,15.08839083,0.0001268,53.2158,213.3946,87.3411,272.7726,8.5889e-05,1.079e-05,0.0,0 STARLINK-3914,1 52490U 22049AR  24201.74624014  .00001079  00000-0  85889-4 0  9993,2 52490  53.2158 213.3946 0001268  87.3411 272.7726 15.08839083122121,6917.883,95.438,540.625,538.871,0.0
52490.0,STARLINK-3914,PAYLOAD,2024-07-20 09:48:26,15.08840665,0.0001227,53.2154,210.4208,87.1673,272.946,9.8874e-05,1.286e-05,0.0,0 STARLINK-3914,1 52490U 22049AR  24202.40863993  .00001286  00000-0  98874-4 0  9996,2 52490  53.2154 210.4208 0001227  87.1673 272.9460 15.08840665122382,6917.878,95.438,540.592,538.895,0.0
52490.0,STARLINK-3914,PAYLOAD,2024-07-20 17:45:22,15.08839769,0.0001231,53.2153,208.934,86.5589,273.5544,7.928e-05,9.74e-06,0.0,0 STARLINK-3914,1 52490U 22049AR  24202.73984164  .00000974  00000-0  79280-4 0  9999,2 52490  53.2153 208.9340 0001231  86.5589 273.5544 15.08839769122275,6917.881,95.438,540.598,538.895,0.0
52490.0,STARLINK-3914,PAYLOAD,2024-07-21 04:53:04,15.08836084,0.0001315,53.2157,206.8519,87.9052,272.2091,1.7604e-05,-8e-08,0.0,0 STARLINK-3914,1 52490U 22049AR  24203.20352642 -.00000008  00000-0  17604-4 0  9993,2 52490  53.2157 206.8519 0001315  87.9052 272.2091 15.08836084122503,6917.892,95.438,540.667,538.848,0.0
52490.0,STARLINK-3914,PAYLOAD,2024-07-21 08:03:50,15.08839971,0.000131,53.2155,206.2574,87.7469,272.3673,2.6946e-05,1.41e-06,0.0,0 STARLINK-3914,1 52490U 22049AR  24203.33600374  .00000141  00000-0  26946-4 0  9991,2 52490  53.2155 206.2574 0001310  87.7469 272.3673 15.08839971122360,6917.88,95.438,540.652,538.839,0.0
52490.0,STARLINK-3914,PAYLOAD,2024-07-22 04:43:51,15.08844052,0.0001325,53.2153,202.3918,87.265,272.8494,5.8162e-05,6.38e-06,0.0,0 STARLINK-3914,1 52490U 22049AR  24204.19711952  .00000638  00000-0  58162-4 0  9997,2 52490  53.2153 202.3918 0001325  87.2650 272.8494 15.08844052122654,6917.868,95.437,540.65,538.816,0.0
52490.0,STARLINK-3914,PAYLOAD,2024-07-22 06:19:14,15.08845142,0.0001329,53.2153,202.0943,87.4276,272.6869,6.6845e-05,7.76e-06,0.0,0 STARLINK-3914,1 52490U 22049AR  24204.26335843  .00000776  00000-0  66845-4 0  9996,2 52490  53.2153 202.0943 0001329  87.4276 272.6869 15.08845142122508,6917.865,95.437,540.649,538.81,0.0
52490.0,STARLINK-3914,PAYLOAD,2024-07-23 02:59:15,15.08838611,0.0001365,53.2155,198.2296,86.088,274.0268,8.0342e-05,9.91e-06,0.0,0 STARLINK-3914,1 52490U 22049AR  24205.12448211  .00000991  00000-0  80342-4 0  9993,2 52490  53.2155 198.2296 0001365  86.0880 274.0268 15.08838611122796,6917.885,95.438,540.694,538.805,0.0
52490.0,STARLINK-3914,PAYLOAD,2024-07-23 09:20:47,15.08844314,0.0001348,53.2154,197.04,84.0138,276.1008,7.7876e-05,9.52e-06,0.0,0 STARLINK-3914,1 52490U 22049AR  24205.38943887  .00000952  00000-0  77876-4 0  9995,2 52490  53.2154 197.0400 0001348  84.0138 276.1008 15.08844314122673,6917.867,95.437,540.665,538.8,0.0
52490.0,STARLINK-3914,PAYLOAD,2024-07-24 04:25:25,15.08837686,0.0001458,53.2159,193.4693,89.2751,270.8408,-2.7086e-05,-7.19e-06,0.0,0 STARLINK-3914,1 52490U 22049AR  24206.18432628 -.00000719  00000-0 -27086-4 0  9991,2 52490  53.2159 193.4693 0001458  89.2751 270.8408 15.08837686122952,6917.887,95.438,540.761,538.744,0.0
52490.0,STARLINK-3914,PAYLOAD,2024-07-24 09:11:35,15.08837488,0.0001457,53.2159,192.5773,88.8242,271.2917,-2.8503e-05,-7.42e-06,0.0,0 STARLINK-3914,1 52490U 22049AR  24206.38304650 -.00000742  00000-0 -28503-4 0  9997,2 52490  53.2159 192.5773 0001457  88.8242 271.2917 15.08837488122826,6917.888,95.438,540.761,538.745,0.0
52490.0,STARLINK-3914,PAYLOAD,2024-07-25 04:16:12,15.08842521,0.0001408,53.2159,189.0087,87.4593,272.656,6.4767e-05,7.43e-06,0.0,0 STARLINK-3914,1 52490U 22049AR  24207.17792058  .00000743  00000-0  64767-4 0  9999,2 52490  53.2159 189.0087 0001408  87.4593 272.6560 15.08842521123100,6917.873,95.437,540.712,538.764,0.0
52490.0,STARLINK-3914,PAYLOAD,2024-07-25 05:51:35,15.08843676,0.0001432,53.2161,188.7112,88.274,271.8416,7.5962e-05,9.21e-06,0.0,0 STARLINK-3914,1 52490U 22049AR  24207.24415942  .00000921  00000-0  75962-4 0  9998,2 52490  53.2161 188.7112 0001432  88.2740 271.8416 15.08843676122953,6917.869,95.437,540.725,538.744,0.0
52490.0,STARLINK-3914,PAYLOAD,2024-07-25 21:45:27,15.08832241,0.0001477,53.2163,185.7396,97.7436,262.3724,2.9668e-05,1.84e-06,0.0,0 STARLINK-3914,1 52490U 22049AR  24207.90656816  .00000184  00000-0  29668-4 0  9991,2 52490  53.2163 185.7396 0001477  97.7436 262.3724 15.08832241123215,6917.904,95.438,540.791,538.747,0.0
52490.0,STARLINK-3914,PAYLOAD,2024-07-26 08:53:09,15.08833153,0.0001571,53.2171,183.6583,102.6146,257.5022,2.8069e-05,1.59e-06,0.0,0 STARLINK-3914,1 52490U 22049AR  24208.37024975  .00000159  00000-0  28069-4 0  9994,2 52490  53.2171 183.6583 0001571 102.6146 257.5022 15.08833153123128,6917.901,95.438,540.853,538.68,0.0
52490.0,STARLINK-3914,PAYLOAD,2024-07-26 15:14:42,15.08836748,0.0001549,53.2173,182.4695,90.6788,269.4382,9.6767e-06,-1.34e-06,0.0,0 STARLINK-3914,1 52490U 22049AR  24208.63520926 -.00000134  00000-0  96767-5 0  9995,2 52490  53.2173 182.4695 0001549  90.6788 269.4382 15.08836748123162,6917.89,95.438,540.827,538.684,0.0
52490.0,STARLINK-3914,PAYLOAD,2024-07-27 05:33:09,15.08849039,0.0001475,53.2166,179.7928,94.9171,265.1989,7.1373e-05,8.48e-06,0.0,0 STARLINK-3914,1 52490U 22049AR  24209.23135847  .00000848  00000-0  71373-4 0  9992,2 52490  53.2166 179.7928 0001475  94.9171 265.1989 15.08849039123414,6917.853,95.437,540.738,538.697,0.0
